CCSDS_OMM_VERS = 2.0
CREATION_DATE  = 
ORIGINATOR     = 

OBJECT_NAME    = AQUA
OBJECT_ID      = 2002-022A
CENTER_NAME    = EARTH
REF_FRAME      = TEME
TIME_SYSTEM    = UTC
MEAN_ELEMENT_THEORY = SGP/SGP4

EPOCH          = 2026-03-09T14:45:32.764320
MEAN_MOTION    = 14.61976871
ECCENTRICITY   = .00005628
INCLINATION    = 98.4175
RA_OF_ASC_NODE = 35.9785
ARG_OF_PERICENTER = 79.9261
MEAN_ANOMALY   = 335.1117

EPHEMERIS_TYPE = 0
CLASSIFICATION_TYPE = U
NORAD_CAT_ID   = 27424
ELEMENT_SET_NO = 999
REV_AT_EPOCH   = 26872
BSTAR          = .28805442E-3
MEAN_MOTION_DOT = .1394E-4
MEAN_MOTION_DDOT = 0

CCSDS_OMM_VERS = 2.0
CREATION_DATE  = 
ORIGINATOR     = 

OBJECT_NAME    = CZ-4B R/B
OBJECT_ID      = 2002-024C
CENTER_NAME    = EARTH
REF_FRAME      = TEME
TIME_SYSTEM    = UTC
MEAN_ELEMENT_THEORY = SGP/SGP4

EPOCH          = 2026-03-09T15:47:45.273696
MEAN_MOTION    = 14.14547563
ECCENTRICITY   = .00504843
INCLINATION    = 98.8839
RA_OF_ASC_NODE = 122.0651
ARG_OF_PERICENTER = 24.3079
MEAN_ANOMALY   = 87.2632

EPHEMERIS_TYPE = 0
CLASSIFICATION_TYPE = U
NORAD_CAT_ID   = 27432
ELEMENT_SET_NO = 999
REV_AT_EPOCH   = 22923
BSTAR          = .42011405E-4
MEAN_MOTION_DOT = .37E-6
MEAN_MOTION_DDOT = 0

CCSDS_OMM_VERS = 2.0
CREATION_DATE  = 
ORIGINATOR     = 

OBJECT_NAME    = MIDORI II (ADEOS-II)
OBJECT_ID      = 2002-056A
CENTER_NAME    = EARTH
REF_FRAME      = TEME
TIME_SYSTEM    = UTC
MEAN_ELEMENT_THEORY = SGP/SGP4

EPOCH          = 2026-03-09T10:53:18.218976
MEAN_MOTION    = 14.29284888
ECCENTRICITY   = .00015894
INCLINATION    = 98.7770
RA_OF_ASC_NODE = 26.9296
ARG_OF_PERICENTER = 42.8915
MEAN_ANOMALY   = 317.2390

EPHEMERIS_TYPE = 0
CLASSIFICATION_TYPE = U
NORAD_CAT_ID   = 27597
ELEMENT_SET_NO = 999
REV_AT_EPOCH   = 21026
BSTAR          = .17717097E-3
MEAN_MOTION_DOT = .405E-5
MEAN_MOTION_DDOT = 0

CCSDS_OMM_VERS = 2.0
CREATION_DATE  = 
ORIGINATOR     = 

OBJECT_NAME    = H-2A R/B
OBJECT_ID      = 2002-056E
CENTER_NAME    = EARTH
REF_FRAME      = TEME
TIME_SYSTEM    = UTC
MEAN_ELEMENT_THEORY = SGP/SGP4

EPOCH          = 2026-03-09T12:11:49.463232
MEAN_MOTION    = 14.33760506
ECCENTRICITY   = .00705011
INCLINATION    = 98.3203
RA_OF_ASC_NODE = 28.8807
ARG_OF_PERICENTER = 161.2005
MEAN_ANOMALY   = 312.7514

EPHEMERIS_TYPE = 0
CLASSIFICATION_TYPE = U
NORAD_CAT_ID   = 27601
ELEMENT_SET_NO = 999
REV_AT_EPOCH   = 21408
BSTAR          = .13419405E-3
MEAN_MOTION_DOT = .342E-5
MEAN_MOTION_DDOT = 0

CCSDS_OMM_VERS = 2.0
CREATION_DATE  = 
ORIGINATOR     = 

OBJECT_NAME    = CZ-4B R/B
OBJECT_ID      = 2003-049C
CENTER_NAME    = EARTH
REF_FRAME      = TEME
TIME_SYSTEM    = UTC
MEAN_ELEMENT_THEORY = SGP/SGP4

EPOCH          = 2026-03-09T12:30:19.245312
MEAN_MOTION    = 14.55019988
ECCENTRICITY   = .00472472
INCLINATION    = 98.6880
RA_OF_ASC_NODE = 63.4192
ARG_OF_PERICENTER = 231.4276
MEAN_ANOMALY   = 128.2683

EPHEMERIS_TYPE = 0
CLASSIFICATION_TYPE = U
NORAD_CAT_ID   = 28059
ELEMENT_SET_NO = 999
REV_AT_EPOCH   = 18657
BSTAR          = .12473308E-3
MEAN_MOTION_DOT = .493E-5
MEAN_MOTION_DDOT = 0

CCSDS_OMM_VERS = 2.0
CREATION_DATE  = 
ORIGINATOR     = 

OBJECT_NAME    = CZ-2C R/B
OBJECT_ID      = 2004-012C
CENTER_NAME    = EARTH
REF_FRAME      = TEME
TIME_SYSTEM    = UTC
MEAN_ELEMENT_THEORY = SGP/SGP4

EPOCH          = 2026-03-09T14:37:09.971616
MEAN_MOTION    = 15.64492937
ECCENTRICITY   = .00129656
INCLINATION    = 97.7228
RA_OF_ASC_NODE = 133.8940
ARG_OF_PERICENTER = 309.7581
MEAN_ANOMALY   = 50.2534

EPHEMERIS_TYPE = 0
CLASSIFICATION_TYPE = U
NORAD_CAT_ID   = 28222
ELEMENT_SET_NO = 999
REV_AT_EPOCH   = 20426
BSTAR          = .58922942E-3
MEAN_MOTION_DOT = .57037E-3
MEAN_MOTION_DDOT = 0

CCSDS_OMM_VERS = 2.0
CREATION_DATE  = 
ORIGINATOR     = 

OBJECT_NAME    = SL-16 R/B
OBJECT_ID      = 2004-021B
CENTER_NAME    = EARTH
REF_FRAME      = TEME
TIME_SYSTEM    = UTC
MEAN_ELEMENT_THEORY = SGP/SGP4

EPOCH          = 2026-03-09T14:21:44.793504
MEAN_MOTION    = 14.14598028
ECCENTRICITY   = .00040347
INCLINATION    = 70.9995
RA_OF_ASC_NODE = 232.6839
ARG_OF_PERICENTER = 9.5684
MEAN_ANOMALY   = 350.5515

EPHEMERIS_TYPE = 0
CLASSIFICATION_TYPE = U
NORAD_CAT_ID   = 28353
ELEMENT_SET_NO = 999
REV_AT_EPOCH   = 12282
BSTAR          = -.10130708E-3
MEAN_MOTION_DOT = -.242E-5
MEAN_MOTION_DDOT = 0

CCSDS_OMM_VERS = 2.0
CREATION_DATE  = 
ORIGINATOR     = 

OBJECT_NAME    = CZ-4B R/B
OBJECT_ID      = 2004-035C
CENTER_NAME    = EARTH
REF_FRAME      = TEME
TIME_SYSTEM    = UTC
MEAN_ELEMENT_THEORY = SGP/SGP4

EPOCH          = 2026-03-09T13:58:06.553920
MEAN_MOTION    = 15.29061870
ECCENTRICITY   = .00310246
INCLINATION    = 97.3501
RA_OF_ASC_NODE = 102.8256
ARG_OF_PERICENTER = 331.9519
MEAN_ANOMALY   = 28.0048

EPHEMERIS_TYPE = 0
CLASSIFICATION_TYPE = U
NORAD_CAT_ID   = 28415
ELEMENT_SET_NO = 999
REV_AT_EPOCH   = 17989
BSTAR          = .32844249E-3
MEAN_MOTION_DOT = .9326E-4
MEAN_MOTION_DDOT = 0

CCSDS_OMM_VERS = 2.0
CREATION_DATE  = 
ORIGINATOR     = 

OBJECT_NAME    = CZ-2C R/B
OBJECT_ID      = 2004-046B
CENTER_NAME    = EARTH
REF_FRAME      = TEME
TIME_SYSTEM    = UTC
MEAN_ELEMENT_THEORY = SGP/SGP4

EPOCH          = 2026-03-09T15:01:10.043616
MEAN_MOTION    = 14.26992003
ECCENTRICITY   = .01398837
INCLINATION    = 98.1983
RA_OF_ASC_NODE = 343.6138
ARG_OF_PERICENTER = 154.6261
MEAN_ANOMALY   = 206.1878

EPHEMERIS_TYPE = 0
CLASSIFICATION_TYPE = U
NORAD_CAT_ID   = 28480
ELEMENT_SET_NO = 999
REV_AT_EPOCH   = 10849
BSTAR          = .72724923E-4
MEAN_MOTION_DOT = .156E-5
MEAN_MOTION_DDOT = 0

CCSDS_OMM_VERS = 2.0
CREATION_DATE  = 
ORIGINATOR     = 

OBJECT_NAME    = ARIANE 5 R/B
OBJECT_ID      = 2004-049H
CENTER_NAME    = EARTH
REF_FRAME      = TEME
TIME_SYSTEM    = UTC
MEAN_ELEMENT_THEORY = SGP/SGP4

EPOCH          = 2026-03-09T10:20:00.381408
MEAN_MOTION    = 14.85265161
ECCENTRICITY   = .00839555
INCLINATION    = 98.2627
RA_OF_ASC_NODE = 236.8779
ARG_OF_PERICENTER = 352.7695
MEAN_ANOMALY   = 7.2301

EPHEMERIS_TYPE = 0
CLASSIFICATION_TYPE = U
NORAD_CAT_ID   = 28499
ELEMENT_SET_NO = 999
REV_AT_EPOCH   = 14575
BSTAR          = .11561171E-3
MEAN_MOTION_DOT = .991E-5
MEAN_MOTION_DDOT = 0

CCSDS_OMM_VERS = 2.0
CREATION_DATE  = 
ORIGINATOR     = 

OBJECT_NAME    = CZ-2D R/B
OBJECT_ID      = 2005-024B
CENTER_NAME    = EARTH
REF_FRAME      = TEME
TIME_SYSTEM    = UTC
MEAN_ELEMENT_THEORY = SGP/SGP4

EPOCH          = 2026-03-09T13:56:47.987808
MEAN_MOTION    = 15.60135028
ECCENTRICITY   = .00058713
INCLINATION    = 97.3602
RA_OF_ASC_NODE = 83.7230
ARG_OF_PERICENTER = 46.8038
MEAN_ANOMALY   = 313.3708

EPHEMERIS_TYPE = 0
CLASSIFICATION_TYPE = U
NORAD_CAT_ID   = 28738
ELEMENT_SET_NO = 999
REV_AT_EPOCH   = 13976
BSTAR          = .55120724E-3
MEAN_MOTION_DOT = .44846E-3
MEAN_MOTION_DDOT = 0

CCSDS_OMM_VERS = 2.0
CREATION_DATE  = 
ORIGINATOR     = 

OBJECT_NAME    = ALOS (DAICHI)
OBJECT_ID      = 2006-002A
CENTER_NAME    = EARTH
REF_FRAME      = TEME
TIME_SYSTEM    = UTC
MEAN_ELEMENT_THEORY = SGP/SGP4

EPOCH          = 2026-03-09T10:26:11.828832
MEAN_MOTION    = 14.69809715
ECCENTRICITY   = .00009384
INCLINATION    = 98.1218
RA_OF_ASC_NODE = 24.3916
ARG_OF_PERICENTER = 58.3478
MEAN_ANOMALY   = 301.7820

EPHEMERIS_TYPE = 0
CLASSIFICATION_TYPE = U
NORAD_CAT_ID   = 28931
ELEMENT_SET_NO = 999
REV_AT_EPOCH   = 7344
BSTAR          = .31666734E-3
MEAN_MOTION_DOT = .1841E-4
MEAN_MOTION_DDOT = 0

