AQUA                    
1 27424U 02022A   26068.61496255  .00001394  00000+0  28805-3 0  9997
2 27424  98.4175  35.9785 0000562  79.9261 335.1117 14.61976871268725
CZ-4B R/B               
1 27432U 02024C   26068.65816289  .00000037  00000+0  42011-4 0  9994
2 27432  98.8839 122.0651 0050484  24.3079  87.2632 14.14547563229234
MIDORI II (ADEOS-II)    
1 27597U 02056A   26068.45368309  .00000405  00000+0  17717-3 0  9997
2 27597  98.7770  26.9296 0001589  42.8915 317.2390 14.29284888210266
H-2A R/B                
1 27601U 02056E   26068.50821138  .00000342  00000+0  13419-3 0  9998
2 27601  98.3203  28.8807 0070501 161.2005 312.7514 14.33760506214087
CZ-4B R/B               
1 28059U 03049C   26068.52105608  .00000493  00000+0  12473-3 0  9994
2 28059  98.6880  63.4192 0047247 231.4276 128.2683 14.55019988186576
CZ-2C R/B               
1 28222U 04012C   26068.60914319  .00057037  00000+0  58923-3 0  9999
2 28222  97.7228 133.8940 0012965 309.7581  50.2534 15.64492937204260
SL-16 R/B               
1 28353U 04021B   26068.59843511 -.00000242  00000+0 -10131-3 0  9994
2 28353  70.9995 232.6839 0004034   9.5684 350.5515 14.14598028122829
CZ-4B R/B               
1 28415U 04035C   26068.58202030  .00009326  00000+0  32844-3 0  9997
2 28415  97.3501 102.8256 0031024 331.9519  28.0048 15.29061870179897
CZ-2C R/B               
1 28480U 04046B   26068.62581069  .00000156  00000+0  72725-4 0  9993
2 28480  98.1983 343.6138 0139883 154.6261 206.1878 14.26992003108497
ARIANE 5 R/B            
1 28499U 04049H   26068.43055997  .00000991  00000+0  11561-3 0  9998
2 28499  98.2627 236.8779 0083955 352.7695   7.2301 14.85265161145751
CZ-2D R/B               
1 28738U 05024B   26068.58111097  .00044846  00000+0  55121-3 0  9995
2 28738  97.3602  83.7230 0005871  46.8038 313.3708 15.60135028139762
ALOS (DAICHI)           
1 28931U 06002A   26068.43485913  .00001841  00000+0  31667-3 0  9999
2 28931  98.1218  24.3916 0000938  58.3478 301.7820 14.69809715 73443
